{"type": "FeatureCollection", "features": [ {"type": "Feature", "properties": {"norad_id": 57401, "name": "TIANMU-1 09", "group": "weather", "lat": -29.366513764461942, "lon": 54.488086820192166, "alt_km": 485.6130729874849, "timestamp": "2025-12-27T12:55:14.129685+00:00", "meta": {"OBJECT_NAME": "TIANMU-1 09", "OBJECT_ID": "2023-101C", "EPOCH": "2025-12-27T06:45:51.653376", "MEAN_MOTION": 15.2829939, "ECCENTRICITY": 0.00060531, "INCLINATION": 97.2803, "RA_OF_ASC_NODE": 50.1121, "ARG_OF_PERICENTER": 43.5731, "MEAN_ANOMALY": 316.5987, "EPHEMERIS_TYPE": 0, "CLASSIFICATION_TYPE": "U", "NORAD_CAT_ID": 57401, "ELEMENT_SET_NO": 999, "REV_AT_EPOCH": 13537, "BSTAR": 0.00031064907, "MEAN_MOTION_DOT": 8.496e-05, "MEAN_MOTION_DDOT": 0}, "tle": {"line1": "1 57401U 23101C   25361.28184784  .00008496  00000+0  31065-3 0  9997", "line2": "2 57401  97.2803  50.1121 0006053  43.5731 316.5987 15.28299390135371"}}, "geometry": {"type": "Point", "coordinates": [54.488086820192166, -29.366513764461942]}}, {"type": "Feature", "properties": {"norad_id": 57402, "name": "TIANMU-1 10", "group": "weather", "lat": 37.42658021967505, "lon": -123.15085288364337, "alt_km": 479.41881286543776, "timestamp": "2025-12-27T12:55:14.129695+00:00", "meta": {"OBJECT_NAME": "TIANMU-1 10", "OBJECT_ID": "2023-101D", "EPOCH": "2025-12-27T07:35:13.986240", "MEAN_MOTION": 15.28291644, "ECCENTRICITY": 0.00077574, "INCLINATION": 97.2883, "RA_OF_ASC_NODE": 51.0108, "ARG_OF_PERICENTER": 40.548, "MEAN_ANOMALY": 319.6337, "EPHEMERIS_TYPE": 0, "CLASSIFICATION_TYPE": "U", "NORAD_CAT_ID": 57402, "ELEMENT_SET_NO": 999, "REV_AT_EPOCH": 13537, "BSTAR": 0.00029565158, "MEAN_MOTION_DOT": 8.083e-05, "MEAN_MOTION_DDOT": 0}, "tle": {"line1": "1 57402U 23101D   25361.31613410  .00008083  00000+0  29565-3 0  9999", "line2": "2 57402  97.2883  51.0108 0007757  40.5480 319.6337 15.28291644135372"}}, "geometry": {"type": "Point", "coordinates": [-123.15085288364337, 37.42658021967505]}}, {"type": "Feature", "properties": {"norad_id": 57490, "name": "FENGYUN 3F", "group": "weather", "lat": 41.9233324087168, "lon": 61.682637349059604, "alt_km": 822.088685274568, "timestamp": "2025-12-27T12:55:14.129711+00:00", "meta": {"OBJECT_NAME": "FENGYUN 3F", "OBJECT_ID": "2023-111A", "EPOCH": "2025-12-27T07:38:50.390592", "MEAN_MOTION": 14.1989742, "ECCENTRICITY": 8.71e-05, "INCLINATION": 98.7064, "RA_OF_ASC_NODE": 69.3756, "ARG_OF_PERICENTER": 118.0284, "MEAN_ANOMALY": 242.0981, "EPHEMERIS_TYPE": 0, "CLASSIFICATION_TYPE": "U", "NORAD_CAT_ID": 57490, "ELEMENT_SET_NO": 999, "REV_AT_EPOCH": 12447, "BSTAR": 5.8465385e-05, "MEAN_MOTION_DOT": 8e-07, "MEAN_MOTION_DDOT": 0}, "tle": {"line1": "1 57490U 23111A   25361.31863878  .00000080  00000+0  58465-4 0  9993", "line2": "2 57490  98.7064  69.3756 0000871 118.0284 242.0981 14.19897420124476"}}, "geometry": {"type": "Point", "coordinates": [61.682637349059604, 41.9233324087168]}}, {"type": "Feature", "properties": {"norad_id": 58584, "name": "ARKTIKA-M 2", "group": "weather", "lat": 62.95920149206215, "lon": -88.40022220214713, "alt_km": 37919.99888594796, "timestamp": "2025-12-27T12:55:14.129723+00:00", "meta": {"OBJECT_NAME": "ARKTIKA-M 2", "OBJECT_ID": "2023-198A", "EPOCH": "2025-12-26T18:51:48.111264", "MEAN_MOTION": 2.00602169, "ECCENTRICITY": 0.68661981, "INCLINATION": 63.2254, "RA_OF_ASC_NODE": 173.3631, "ARG_OF_PERICENTER": 268.0478, "MEAN_ANOMALY": 18.8426, "EPHEMERIS_TYPE": 0, "CLASSIFICATION_TYPE": "U", "NORAD_CAT_ID": 58584, "ELEMENT_SET_NO": 999, "REV_AT_EPOCH": 1486, "BSTAR": 0, "MEAN_MOTION_DOT": 2.36e-06, "MEAN_MOTION_DDOT": 0}, "tle": {"line1": "1 58584U 23198A   25360.78597351  .00000236  00000+0  00000+0 0  9993", "line2": "2 58584  63.2254 173.3631 6866198 268.0478  18.8426  2.00602169 14861"}}, "geometry": {"type": "Point", "coordinates": [-88.40022220214713, 62.95920149206215]}}, {"type": "Feature", "properties": {"norad_id": 58645, "name": "TIANMU-1 11", "group": "weather", "lat": 44.20093105919805, "lon": -151.8766943050561, "alt_km": 489.70483539044653, "timestamp": "2025-12-27T12:55:14.129735+00:00", "meta": {"OBJECT_NAME": "TIANMU-1 11", "OBJECT_ID": "2023-205A", "EPOCH": "2025-12-27T07:36:13.183200", "MEAN_MOTION": 15.24777206, "ECCENTRICITY": 0.00076051, "INCLINATION": 97.3601, "RA_OF_ASC_NODE": 20.6842, "ARG_OF_PERICENTER": 247.77, "MEAN_ANOMALY": 112.2732, "EPHEMERIS_TYPE": 0, "CLASSIFICATION_TYPE": "U", "NORAD_CAT_ID": 58645, "ELEMENT_SET_NO": 999, "REV_AT_EPOCH": 11131, "BSTAR": 0.00026717465, "MEAN_MOTION_DOT": 6.557e-05, "MEAN_MOTION_DDOT": 0}, "tle": {"line1": "1 58645U 23205A   25361.31681925  .00006557  00000+0  26717-3 0  9990", "line2": "2 58645  97.3601  20.6842 0007605 247.7700 112.2732 15.24777206111319"}}, "geometry": {"type": "Point", "coordinates": [-151.8766943050561, 44.20093105919805]}}, {"type": "Feature", "properties": {"norad_id": 58646, "name": "TIANMU-1 12", "group": "weather", "lat": -18.467114879812904, "lon": 23.17622077592881, "alt_km": 498.8273777351824, "timestamp": "2025-12-27T12:55:14.129746+00:00", "meta": {"OBJECT_NAME": "TIANMU-1 12", "OBJECT_ID": "2023-205B", "EPOCH": "2025-12-27T06:42:05.929920", "MEAN_MOTION": 15.24664129, "ECCENTRICITY": 0.00061457, "INCLINATION": 97.3589, "RA_OF_ASC_NODE": 20.448, "ARG_OF_PERICENTER": 225.6683, "MEAN_ANOMALY": 134.4052, "EPHEMERIS_TYPE": 0, "CLASSIFICATION_TYPE": "U", "NORAD_CAT_ID": 58646, "ELEMENT_SET_NO": 999, "REV_AT_EPOCH": 11129, "BSTAR": 0.00030048901, "MEAN_MOTION_DOT": 7.357e-05, "MEAN_MOTION_DDOT": 0}, "tle": {"line1": "1 58646U 23205B   25361.27923530  .00007357  00000+0  30049-3 0  9999", "line2": "2 58646  97.3589  20.4480 0006145 225.6683 134.4052 15.24664129111291"}}, "geometry": {"type": "Point", "coordinates": [23.17622077592881, -18.467114879812904]}}, {"type": "Feature", "properties": {"norad_id": 58647, "name": "TIANMU-1 13", "group": "weather", "lat": 20.041220413725227, "lon": -156.38698375692078, "alt_km": 488.4129029545811, "timestamp": "2025-12-27T12:55:14.129756+00:00", "meta": {"OBJECT_NAME": "TIANMU-1 13", "OBJECT_ID": "2023-205C", "EPOCH": "2025-12-27T07:29:48.852672", "MEAN_MOTION": 15.2470828, "ECCENTRICITY": 0.00068586, "INCLINATION": 97.3617, "RA_OF_ASC_NODE": 20.6877, "ARG_OF_PERICENTER": 204.3514, "MEAN_ANOMALY": 155.74, "EPHEMERIS_TYPE": 0, "CLASSIFICATION_TYPE": "U", "NORAD_CAT_ID": 58647, "ELEMENT_SET_NO": 999, "REV_AT_EPOCH": 11129, "BSTAR": 0.00027256054, "MEAN_MOTION_DOT": 6.676e-05, "MEAN_MOTION_DDOT": 0}, "tle": {"line1": "1 58647U 23205C   25361.31237098  .00006676  00000+0  27256-3 0  9991", "line2": "2 58647  97.3617  20.6877 0006858 204.3514 155.7400 15.24708280111294"}}, "geometry": {"type": "Point", "coordinates": [-156.38698375692078, 20.041220413725227]}}, {"type": "Feature", "properties": {"norad_id": 58648, "name": "TIANMU-1 14", "group": "weather", "lat": -68.7163428605484, "lon": -179.11966254783812, "alt_km": 495.04373727779966, "timestamp": "2025-12-27T12:55:14.129766+00:00", "meta": {"OBJECT_NAME": "TIANMU-1 14", "OBJECT_ID": "2023-205D", "EPOCH": "2025-12-27T07:06:08.600832", "MEAN_MOTION": 15.24691341, "ECCENTRICITY": 0.00075332, "INCLINATION": 97.3549, "RA_OF_ASC_NODE": 20.0068, "ARG_OF_PERICENTER": 210.5119, "MEAN_ANOMALY": 149.5681, "EPHEMERIS_TYPE": 0, "CLASSIFICATION_TYPE": "U", "NORAD_CAT_ID": 58648, "ELEMENT_SET_NO": 999, "REV_AT_EPOCH": 11129, "BSTAR": 0.00030023867, "MEAN_MOTION_DOT": 7.359e-05, "MEAN_MOTION_DDOT": 0}, "tle": {"line1": "1 58648U 23205D   25361.29593288  .00007359  00000+0  30024-3 0  9991", "line2": "2 58648  97.3549  20.0068 0007533 210.5119 149.5681 15.24691341111297"}}, "geometry": {"type": "Point", "coordinates": [-179.11966254783812, -68.7163428605484]}}, {"type": "Feature", "properties": {"norad_id": 58660, "name": "TIANMU-1 19", "group": "weather", "lat": -34.84542643813564, "lon": 117.76692274955748, "alt_km": 490.07688278126625, "timestamp": "2025-12-27T12:55:14.129776+00:00", "meta": {"OBJECT_NAME": "TIANMU-1 19", "OBJECT_ID": "2023-208A", "EPOCH": "2025-12-27T06:47:17.266272", "MEAN_MOTION": 15.28119924, "ECCENTRICITY": 0.00049501, "INCLINATION": 97.4383, "RA_OF_ASC_NODE": 112.2932, "ARG_OF_PERICENTER": 192.4715, "MEAN_ANOMALY": 167.6403, "EPHEMERIS_TYPE": 0, "CLASSIFICATION_TYPE": "U", "NORAD_CAT_ID": 58660, "ELEMENT_SET_NO": 999, "REV_AT_EPOCH": 11104, "BSTAR": 0.00038949856, "MEAN_MOTION_DOT": 0.00010611, "MEAN_MOTION_DDOT": 0}, "tle": {"line1": "1 58660U 23208A   25361.28283873  .00010611  00000+0  38950-3 0  9994", "line2": "2 58660  97.4383 112.2932 0004950 192.4715 167.6403 15.28119924111044"}}, "geometry": {"type": "Point", "coordinates": [117.76692274955748, -34.84542643813564]}}, {"type": "Feature", "properties": {"norad_id": 58661, "name": "TIANMU-1 20", "group": "weather", "lat": 75.589894313162, "lon": -36.45583643627352, "alt_km": 471.79816137778926, "timestamp": "2025-12-27T12:55:14.129788+00:00", "meta": {"OBJECT_NAME": "TIANMU-1 20", "OBJECT_ID": "2023-208B", "EPOCH": "2025-12-27T06:11:34.059840", "MEAN_MOTION": 15.29310085, "ECCENTRICITY": 0.00069571, "INCLINATION": 97.4321, "RA_OF_ASC_NODE": 112.7305, "ARG_OF_PERICENTER": 206.6493, "MEAN_ANOMALY": 153.4391, "EPHEMERIS_TYPE": 0, "CLASSIFICATION_TYPE": "U", "NORAD_CAT_ID": 58661, "ELEMENT_SET_NO": 999, "REV_AT_EPOCH": 11111, "BSTAR": 0.00039251011, "MEAN_MOTION_DOT": 0.00011096, "MEAN_MOTION_DDOT": 0}, "tle": {"line1": "1 58661U 23208B   25361.25803310  .00011096  00000+0  39251-3 0  9999", "line2": "2 58661  97.4321 112.7305 0006957 206.6493 153.4391 15.29310085111115"}}, "geometry": {"type": "Point", "coordinates": [-36.45583643627352, 75.589894313162]}}]}